[{"OBJECT_NAME":"LEMUR-2-DEMBITZ","OBJECT_ID":"2017-042T","EPOCH":"2026-03-09T11:23:53.232288","MEAN_MOTION":15.26947128,"ECCENTRICITY":0.00069617,"INCLINATION":97.3807,"RA_OF_ASC_NODE":250.9241,"ARG_OF_PERICENTER":17.1421,"MEAN_ANOMALY":343.0051,"EPHEMERIS_TYPE":0,"CLASSIFICATION_TYPE":"U","NORAD_CAT_ID":42842,"ELEMENT_SET_NO":999,"REV_AT_EPOCH":47311,"BSTAR":0.00076560825,"MEAN_MOTION_DOT":0.00020231,"MEAN_MOTION_DDOT":0},{"OBJECT_NAME":"STARLINK-36210","OBJECT_ID":"2025-303M","EPOCH":"2026-03-09T00:50:21.020064","MEAN_MOTION":15.27594454,"ECCENTRICITY":0.00022379,"INCLINATION":43.0036,"RA_OF_ASC_NODE":314.5291,"ARG_OF_PERICENTER":258.7936,"MEAN_ANOMALY":101.2664,"EPHEMERIS_TYPE":0,"CLASSIFICATION_TYPE":"U","NORAD_CAT_ID":67174,"ELEMENT_SET_NO":999,"REV_AT_EPOCH":1263,"BSTAR":0.0013034625,"MEAN_MOTION_DOT":0.00035797,"MEAN_MOTION_DDOT":0}]
